TIANMU-1 08             
1 57400U 23101B   26066.00237819  .00000346  00000+0  14775-4 0  9993
2 57400  97.2717 118.7901 0006380 134.2174 225.9592 15.29204229146020
STARLINK-32870          
1 63018U 25032P   26068.13048659  .00023260  00000+0  85279-3 0  9994
2 63018  42.9983 339.2818 0000802 299.9578  60.1194 15.27553727 60537
